start=new Date('2021-12-06T00:00:00.000Z').valueOf();
sats=[{"TLE_LINE1":"1 47865U 21021F   21339.60854770  .00000273  00000-0  37258-4 0  9992","TIME_SYSTEM":"UTC","SEMIMAJOR_AXIS":"6925.382","OBJECT_NAME":"STARLINK-2310","PERIAPSIS":"546.255","APOAPSIS":"548.239","BSTAR":"0.00003725800000","ARG_OF_PERICENTER":"77.9166","CLASSIFICATION_TYPE":"U","RCS_SIZE":"LARGE","PERIOD":"95.593","INCLINATION":"53.0561","TLE_LINE2":"2 47865  53.0561  52.6335 0001433  77.9166 282.1984 15.06389094 41917","OBJECT_ID":"2021-021F","OBJECT_TYPE":"PAYLOAD","EPHEMERIS_TYPE":"0","RA_OF_ASC_NODE":"52.6335","MEAN_MOTION_DDOT":"0.0000000000000","FILE":"3233515","COUNTRY_CODE":"US","ECCENTRICITY":"0.00014330","DECAY_DATE":null,"CENTER_NAME":"EARTH","SITE":"AFETR","MEAN_ELEMENT_THEORY":"SGP4","REF_FRAME":"TEME","EPOCH":"2021-12-05T14:36:18.521280","NORAD_CAT_ID":"47865","GP_ID":"191170568","REV_AT_EPOCH":"4191","MEAN_MOTION_DOT":"0.00000273","ELEMENT_SET_NO":"999","LAUNCH_DATE":"2021-03-14","MEAN_MOTION":"15.06389094","MEAN_ANOMALY":"282.1984"},{"OBJECT_NAME":"STARLINK-2320","BSTAR":"-0.00002217200000","APOAPSIS":"548.278","PERIAPSIS":"546.214","CLASSIFICATION_TYPE":"U","ARG_OF_PERICENTER":"70.6745","TIME_SYSTEM":"UTC","TLE_LINE1":"1 47866U 21021G   21339.61223064 -.00000612  00000-0 -22172-4 0  9998","SEMIMAJOR_AXIS":"6925.381","OBJECT_TYPE":"PAYLOAD","EPHEMERIS_TYPE":"0","FILE":"3233515","RA_OF_ASC_NODE":"52.6283","MEAN_MOTION_DDOT":"0.0000000000000","RCS_SIZE":"LARGE","PERIOD":"95.593","TLE_LINE2":"2 47866  53.0572  52.6283 0001490  70.6745 289.4405 15.06389312 41964","OBJECT_ID":"2021-021G","INCLINATION":"53.0572","SITE":"AFETR","MEAN_ELEMENT_THEORY":"SGP4","REF_FRAME":"TEME","EPOCH":"2021-12-05T14:41:36.727296","COUNTRY_CODE":"US","ECCENTRICITY":"0.00014900","CENTER_NAME":"EARTH","DECAY_DATE":null,"ELEMENT_SET_NO":"999","MEAN_MOTION_DOT":"-0.00000612","LAUNCH_DATE":"2021-03-14","MEAN_ANOMALY":"289.4405","MEAN_MOTION":"15.06389312","NORAD_CAT_ID":"47866","GP_ID":"191170819","REV_AT_EPOCH":"4196"},{"INCLINATION":"53.0568","OBJECT_ID":"2021-021H","TLE_LINE2":"2 47867  53.0568  41.4584 0001613  66.1647 293.9511 15.06393736 41949","PERIOD":"95.593","RCS_SIZE":"LARGE","MEAN_MOTION_DDOT":"0.0000000000000","RA_OF_ASC_NODE":"41.4584","FILE":"3233515","EPHEMERIS_TYPE":"0","OBJECT_TYPE":"PAYLOAD","SEMIMAJOR_AXIS":"6925.368","TLE_LINE1":"1 47867U 21021H   21339.87116485 -.00000710  00000-0 -28748-4 0  9999","TIME_SYSTEM":"UTC","ARG_OF_PERICENTER":"66.1647","CLASSIFICATION_TYPE":"U","PERIAPSIS":"546.116","APOAPSIS":"548.350","BSTAR":"-0.00002874800000","OBJECT_NAME":"STARLINK-2321","REV_AT_EPOCH":"4194","GP_ID":"191171570","NORAD_CAT_ID":"47867","MEAN_MOTION":"15.06393736","MEAN_ANOMALY":"293.9511","LAUNCH_DATE":"2021-03-14","ELEMENT_SET_NO":"999","MEAN_MOTION_DOT":"-0.00000710","DECAY_DATE":null,"CENTER_NAME":"EARTH","ECCENTRICITY":"0.00016130","COUNTRY_CODE":"US","EPOCH":"2021-12-05T20:54:28.643040","REF_FRAME":"TEME","MEAN_ELEMENT_THEORY":"SGP4","SITE":"AFETR"},{"TIME_SYSTEM":"UTC","TLE_LINE1":"1 47868U 21021J   21339.73202395  .00000299  00000-0  39022-4 0  9998","SEMIMAJOR_AXIS":"6925.369","OBJECT_NAME":"STARLINK-2323","BSTAR":"0.00003902200000","PERIAPSIS":"545.673","APOAPSIS":"548.795","ARG_OF_PERICENTER":"43.5954","CLASSIFICATION_TYPE":"U","RCS_SIZE":"LARGE","PERIOD":"95.593","TLE_LINE2":"2 47868  53.0538 352.0809 0002254  43.5954 316.5213 15.06393205 42673","OBJECT_ID":"2021-021J","INCLINATION":"53.0538","OBJECT_TYPE":"PAYLOAD","EPHEMERIS_TYPE":"0","FILE":"3233515","RA_OF_ASC_NODE":"352.0809","MEAN_MOTION_DDOT":"0.0000000000000","ECCENTRICITY":"0.00022540","COUNTRY_CODE":"US","CENTER_NAME":"EARTH","DECAY_DATE":null,"SITE":"AFETR","REF_FRAME":"TEME","MEAN_ELEMENT_THEORY":"SGP4","EPOCH":"2021-12-05T17:34:06.869280","NORAD_CAT_ID":"47868","GP_ID":"191170318","REV_AT_EPOCH":"4267","ELEMENT_SET_NO":"999","MEAN_MOTION_DOT":"0.00000299","LAUNCH_DATE":"2021-03-14","MEAN_ANOMALY":"316.5213","MEAN_MOTION":"15.06393205"},{"RCS_SIZE":"LARGE","PERIOD":"95.592","INCLINATION":"53.0574","OBJECT_ID":"2021-021K","TLE_LINE2":"2 47869  53.0574  41.4905 0001390  63.7318 296.3814 15.06401010 42090","OBJECT_TYPE":"PAYLOAD","EPHEMERIS_TYPE":"0","MEAN_MOTION_DDOT":"0.0000000000000","RA_OF_ASC_NODE":"41.4905","FILE":"3233515","TLE_LINE1":"1 47869U 21021K   21339.86747848  .00000181  00000-0  31056-4 0  9999","TIME_SYSTEM":"UTC","SEMIMAJOR_AXIS":"6925.345","OBJECT_NAME":"STARLINK-2324","PERIAPSIS":"546.248","APOAPSIS":"548.173","BSTAR":"0.00003105600000","ARG_OF_PERICENTER":"63.7318","CLASSIFICATION_TYPE":"U","NORAD_CAT_ID":"47869","GP_ID":"191170068","REV_AT_EPOCH":"4209","MEAN_MOTION_DOT":"0.00000181","ELEMENT_SET_NO":"999","LAUNCH_DATE":"2021-03-14","MEAN_MOTION":"15.06401010","MEAN_ANOMALY":"296.3814","ECCENTRICITY":"0.00013900","COUNTRY_CODE":"US","DECAY_DATE":null,"CENTER_NAME":"EARTH","SITE":"AFETR","MEAN_ELEMENT_THEORY":"SGP4","REF_FRAME":"TEME","EPOCH":"2021-12-05T20:49:10.140672"},{"OBJECT_TYPE":"PAYLOAD","EPHEMERIS_TYPE":"0","FILE":"3233515","MEAN_MOTION_DDOT":"0.0000000000000","RA_OF_ASC_NODE":"67.3532","RCS_SIZE":"MEDIUM","PERIOD":"95.593","OBJECT_ID":"2021-021L","TLE_LINE2":"2 47870  53.0455  67.3532 0001356  77.3961 282.7179 15.06390799 41509","INCLINATION":"53.0455","OBJECT_NAME":"STARLINK-2326","BSTAR":"0.00004421100000","APOAPSIS":"548.181","PERIAPSIS":"546.303","ARG_OF_PERICENTER":"77.3961","CLASSIFICATION_TYPE":"U","TIME_SYSTEM":"UTC","TLE_LINE1":"1 47870U 21021L   21339.68640520  .00000377  00000-0  44211-4 0  9994","SEMIMAJOR_AXIS":"6925.377","MEAN_MOTION_DOT":"0.00000377","ELEMENT_SET_NO":"999","LAUNCH_DATE":"2021-03-14","MEAN_ANOMALY":"282.7179","MEAN_MOTION":"15.06390799","NORAD_CAT_ID":"47870","GP_ID":"191171320","REV_AT_EPOCH":"4150","SITE":"AFETR","REF_FRAME":"TEME","MEAN_ELEMENT_THEORY":"SGP4","EPOCH":"2021-12-05T16:28:25.409280","COUNTRY_CODE":"US","ECCENTRICITY":"0.00013560","CENTER_NAME":"EARTH","DECAY_DATE":null},{"CENTER_NAME":"EARTH","DECAY_DATE":null,"COUNTRY_CODE":"US","ECCENTRICITY":"0.00013960","EPOCH":"2021-12-05T15:57:14.138208","MEAN_ELEMENT_THEORY":"SGP4","REF_FRAME":"TEME","SITE":"AFETR","REV_AT_EPOCH":"4195","GP_ID":"191171070","NORAD_CAT_ID":"47871","MEAN_ANOMALY":"282.1392","MEAN_MOTION":"15.06416744","LAUNCH_DATE":"2021-03-14","MEAN_MOTION_DOT":"-0.00003940","ELEMENT_SET_NO":"999","SEMIMAJOR_AXIS":"6925.297","TIME_SYSTEM":"UTC","TLE_LINE1":"1 47871U 21021M   21339.66474697 -.00003940  00000-0 -24561-3 0  9999","CLASSIFICATION_TYPE":"U","ARG_OF_PERICENTER":"77.9754","BSTAR":"-0.00024561000000","PERIAPSIS":"546.195","APOAPSIS":"548.129","OBJECT_NAME":"STARLINK-2327","OBJECT_ID":"2021-021M","TLE_LINE2":"2 47871  53.0575  42.3998 0001396  77.9754 282.1392 15.06416744 41951","INCLINATION":"53.0575","PERIOD":"95.591","RCS_SIZE":"LARGE","FILE":"3233515","MEAN_MOTION_DDOT":"0.0000000000000","RA_OF_ASC_NODE":"42.3998","EPHEMERIS_TYPE":"0","OBJECT_TYPE":"PAYLOAD"},{"CENTER_NAME":"EARTH","DECAY_DATE":null,"ECCENTRICITY":"0.00010700","COUNTRY_CODE":"US","EPOCH":"2021-12-05T19:03:01.367712","REF_FRAME":"TEME","MEAN_ELEMENT_THEORY":"SGP4","SITE":"AFETR","REV_AT_EPOCH":"4254","GP_ID":"191169818","NORAD_CAT_ID":"47872","MEAN_ANOMALY":"261.0203","MEAN_MOTION":"15.06389033","LAUNCH_DATE":"2021-03-14","MEAN_MOTION_DOT":"-0.00000368","ELEMENT_SET_NO":"999","SEMIMAJOR_AXIS":"6925.382","TIME_SYSTEM":"UTC","TLE_LINE1":"1 47872U 21021N   21339.79376583 -.00000368  00000-0 -58296-5 0  9994","CLASSIFICATION_TYPE":"U","ARG_OF_PERICENTER":"99.0907","BSTAR":"-0.00000582960000","APOAPSIS":"547.988","PERIAPSIS":"546.506","OBJECT_NAME":"STARLINK-2328","OBJECT_ID":"2021-021N","TLE_LINE2":"2 47872  53.0649   1.7721 0001070  99.0907 261.0203 15.06389033 42544","INCLINATION":"53.0649","PERIOD":"95.593","RCS_SIZE":"LARGE","FILE":"3233515","RA_OF_ASC_NODE":"1.7721","MEAN_MOTION_DDOT":"0.0000000000000","EPHEMERIS_TYPE":"0","OBJECT_TYPE":"PAYLOAD"},{"PERIAPSIS":"546.300","APOAPSIS":"548.163","BSTAR":"0.00005575100000","CLASSIFICATION_TYPE":"U","ARG_OF_PERICENTER":"59.8430","OBJECT_NAME":"STARLINK-2329","SEMIMAJOR_AXIS":"6925.366","TLE_LINE1":"1 47873U 21021P   21339.91171131  .00000549  00000-0  55751-4 0  9992","TIME_SYSTEM":"UTC","MEAN_MOTION_DDOT":"0.0000000000000","RA_OF_ASC_NODE":"41.2817","FILE":"3233515","OBJECT_TYPE":"PAYLOAD","EPHEMERIS_TYPE":"0","PERIOD":"95.593","INCLINATION":"53.0534","TLE_LINE2":"2 47873  53.0534  41.2817 0001345  59.8430 300.2692 15.06394254 41989","OBJECT_ID":"2021-021P","RCS_SIZE":"LARGE","EPOCH":"2021-12-05T21:52:51.857184","SITE":"AFETR","REF_FRAME":"TEME","MEAN_ELEMENT_THEORY":"SGP4","DECAY_DATE":null,"CENTER_NAME":"EARTH","ECCENTRICITY":"0.00013450","COUNTRY_CODE":"US","MEAN_MOTION":"15.06394254","MEAN_ANOMALY":"300.2692","MEAN_MOTION_DOT":"0.00000549","ELEMENT_SET_NO":"999","LAUNCH_DATE":"2021-03-14","GP_ID":"191170569","REV_AT_EPOCH":"4198","NORAD_CAT_ID":"47873"},{"MEAN_ANOMALY":"305.8098","MEAN_MOTION":"15.06393514","ELEMENT_SET_NO":"999","MEAN_MOTION_DOT":"0.00000944","LAUNCH_DATE":"2021-03-14","GP_ID":"191170820","REV_AT_EPOCH":"4260","NORAD_CAT_ID":"47874","EPOCH":"2021-12-05T18:54:21.438432","SITE":"AFETR","REF_FRAME":"TEME","MEAN_ELEMENT_THEORY":"SGP4","CENTER_NAME":"EARTH","DECAY_DATE":null,"COUNTRY_CODE":"US","ECCENTRICITY":"0.00014700","FILE":"3233515","MEAN_MOTION_DDOT":"0.0000000000000","RA_OF_ASC_NODE":"356.8560","OBJECT_TYPE":"PAYLOAD","EPHEMERIS_TYPE":"0","PERIOD":"95.593","OBJECT_ID":"2021-021Q","TLE_LINE2":"2 47874  53.0481 356.8560 0001470  54.3027 305.8098 15.06393514 42601","INCLINATION":"53.0481","RCS_SIZE":"LARGE","BSTAR":"0.00008224900000","APOAPSIS":"548.251","PERIAPSIS":"546.215","ARG_OF_PERICENTER":"54.3027","CLASSIFICATION_TYPE":"U","OBJECT_NAME":"STARLINK-2330","SEMIMAJOR_AXIS":"6925.368","TIME_SYSTEM":"UTC","TLE_LINE1":"1 47874U 21021Q   21339.78774813  .00000944  00000-0  82249-4 0  9995"}];
